{
  "type": "FeatureCollection",
  "features": [
    {
      "type": "Feature",
      "properties": {
        "norad_id": 41948,
        "name": "CARTOSAT-2D",
        "group": "resource",
        "lat": 82.50599123588535,
        "lon": -40.31350223115859,
        "alt_km": 497.50598317626736,
        "timestamp": "2025-12-25T03:55:55.963787+00:00",
        "meta_object_name": "CARTOSAT-2D",
        "meta_object_id": "2017-008A",
        "meta_epoch": "2025-12-24T21:12:38.098656",
        "meta_mean_motion": 15.19182024,
        "meta_eccentricity": 0.0005403,
        "meta_inclination": 97.437,
        "meta_ra_of_asc_node": 56.195,
        "meta_arg_of_pericenter": 118.373,
        "meta_mean_anomaly": 241.805,
        "meta_ephemeris_type": 0,
        "meta_classification_type": "U",
        "meta_norad_cat_id": 41948,
        "meta_element_set_no": 999,
        "meta_rev_at_epoch": 49111,
        "meta_bstar": 0.00019526,
        "meta_mean_motion_dot": 4.04e-05,
        "meta_mean_motion_ddot": 0,
        "tle_line1": "1 41948U 17008A   25358.88377429  .00004040  00000+0  19526-3 0  9996",
        "tle_line2": "2 41948  97.4370  56.1950 0005403 118.3730 241.8050 15.19182024491118"
      },
      "geometry": {
        "type": "Point",
        "coordinates": [
          -40.31350223115859,
          82.50599123588535
        ]
      }
    },
    {
      "type": "Feature",
      "properties": {
        "norad_id": 42063,
        "name": "SENTINEL-2B",
        "group": "resource",
        "lat": 62.07316900846157,
        "lon": 54.906723634637245,
        "alt_km": 782.1745829401716,
        "timestamp": "2025-12-25T03:55:55.963797+00:00",
        "meta_object_name": "SENTINEL-2B",
        "meta_object_id": "2017-013A",
        "meta_epoch": "2025-12-24T19:14:44.697408",
        "meta_mean_motion": 14.30815396,
        "meta_eccentricity": 0.0001179,
        "meta_inclination": 98.57,
        "meta_ra_of_asc_node": 71.078,
        "meta_arg_of_pericenter": 90.2921,
        "meta_mean_anomaly": 269.8397,
        "meta_ephemeris_type": 0,
        "meta_classification_type": "U",
        "meta_norad_cat_id": 42063,
        "meta_element_set_no": 999,
        "meta_rev_at_epoch": 45970,
        "meta_bstar": 6.5038e-05,
        "meta_mean_motion_dot": 1.27e-06,
        "meta_mean_motion_ddot": 0,
        "tle_line1": "1 42063U 17013A   25358.80190622  .00000127  00000+0  65038-4 0  9993",
        "tle_line2": "2 42063  98.5700  71.0780 0001179  90.2921 269.8397 14.30815396459709"
      },
      "geometry": {
        "type": "Point",
        "coordinates": [
          54.906723634637245,
          62.07316900846157
        ]
      }
    },
    {
      "type": "Feature",
      "properties": {
        "norad_id": 42767,
        "name": "CARTOSAT-2E",
        "group": "resource",
        "lat": 0.029831747766926476,
        "lon": 56.58304185991691,
        "alt_km": 513.0596464186538,
        "timestamp": "2025-12-25T03:55:55.963808+00:00",
        "meta_object_name": "CARTOSAT-2E",
        "meta_object_id": "2017-036C",
        "meta_epoch": "2025-12-24T20:01:41.040192",
        "meta_mean_motion": 15.19184682,
        "meta_eccentricity": 0.0002449,
        "meta_inclination": 97.4537,
        "meta_ra_of_asc_node": 56.262,
        "meta_arg_of_pericenter": 174.9269,
        "meta_mean_anomaly": 185.199,
        "meta_ephemeris_type": 0,
        "meta_classification_type": "U",
        "meta_norad_cat_id": 42767,
        "meta_element_set_no": 999,
        "meta_rev_at_epoch": 47167,
        "meta_bstar": 0.00010316,
        "meta_mean_motion_dot": 2.102e-05,
        "meta_mean_motion_ddot": 0,
        "tle_line1": "1 42767U 17036C   25358.83450278  .00002102  00000+0  10316-3 0  9991",
        "tle_line2": "2 42767  97.4537  56.2620 0002449 174.9269 185.1990 15.19184682471674"
      },
      "geometry": {
        "type": "Point",
        "coordinates": [
          56.58304185991691,
          0.029831747766926476
        ]
      }
    },
    {
      "type": "Feature",
      "properties": {
        "norad_id": 42920,
        "name": "FORMOSAT-5",
        "group": "resource",
        "lat": -58.387566041600536,
        "lon": -120.39141447520386,
        "alt_km": 723.6707366574174,
        "timestamp": "2025-12-25T03:55:55.963818+00:00",
        "meta_object_name": "FORMOSAT-5",
        "meta_object_id": "2017-049A",
        "meta_epoch": "2025-12-24T18:33:19.423008",
        "meta_mean_motion": 14.50767241,
        "meta_eccentricity": 0.0009833,
        "meta_inclination": 98.2439,
        "meta_ra_of_asc_node": 72.8497,
        "meta_arg_of_pericenter": 260.3075,
        "meta_mean_anomaly": 99.7009,
        "meta_ephemeris_type": 0,
        "meta_classification_type": "U",
        "meta_norad_cat_id": 42920,
        "meta_element_set_no": 999,
        "meta_rev_at_epoch": 44138,
        "meta_bstar": 6.8236e-05,
        "meta_mean_motion_dot": 2.25e-06,
        "meta_mean_motion_ddot": 0,
        "tle_line1": "1 42920U 17049A   25358.77314147  .00000225  00000+0  68236-4 0  9992",
        "tle_line2": "2 42920  98.2439  72.8497 0009833 260.3075  99.7009 14.50767241441388"
      },
      "geometry": {
        "type": "Point",
        "coordinates": [
          -120.39141447520386,
          -58.387566041600536
        ]
      }
    },
    {
      "type": "Feature",
      "properties": {
        "norad_id": 42969,
        "name": "SENTINEL-5P",
        "group": "resource",
        "lat": -42.87559398041846,
        "lon": -54.11110764608959,
        "alt_km": 834.0879326570657,
        "timestamp": "2025-12-25T03:55:55.963828+00:00",
        "meta_object_name": "SENTINEL-5P",
        "meta_object_id": "2017-064A",
        "meta_epoch": "2025-12-24T19:40:42.588768",
        "meta_mean_motion": 14.19520402,
        "meta_eccentricity": 0.0001055,
        "meta_inclination": 98.7802,
        "meta_ra_of_asc_node": 297.2978,
        "meta_arg_of_pericenter": 90.9403,
        "meta_mean_anomaly": 269.1894,
        "meta_ephemeris_type": 0,
        "meta_classification_type": "U",
        "meta_norad_cat_id": 42969,
        "meta_element_set_no": 999,
        "meta_rev_at_epoch": 42482,
        "meta_bstar": 6.0571e-05,
        "meta_mean_motion_dot": 8.3e-07,
        "meta_mean_motion_ddot": 0,
        "tle_line1": "1 42969U 17064A   25358.81993737  .00000083  00000+0  60571-4 0  9991",
        "tle_line2": "2 42969  98.7802 297.2978 0001055  90.9403 269.1894 14.19520402424823"
      },
      "geometry": {
        "type": "Point",
        "coordinates": [
          -54.11110764608959,
          -42.87559398041846
        ]
      }
    },
    {
      "type": "Feature",
      "properties": {
        "norad_id": 42987,
        "name": "SKYSAT-C11",
        "group": "resource",
        "lat": 33.52770245797789,
        "lon": 132.01674563870512,
        "alt_km": 420.28485759726937,
        "timestamp": "2025-12-25T03:55:55.963839+00:00",
        "meta_object_name": "SKYSAT-C11",
        "meta_object_id": "2017-068A",
        "meta_epoch": "2025-12-24T20:01:45.463872",
        "meta_mean_motion": 15.4796179,
        "meta_eccentricity": 0.0001124,
        "meta_inclination": 97.4153,
        "meta_ra_of_asc_node": 136.6296,
        "meta_arg_of_pericenter": 96.2754,
        "meta_mean_anomaly": 263.8624,
        "meta_ephemeris_type": 0,
        "meta_classification_type": "U",
        "meta_norad_cat_id": 42987,
        "meta_element_set_no": 999,
        "meta_rev_at_epoch": 45618,
        "meta_bstar": 0.00044441,
        "meta_mean_motion_dot": 0.00023136,
        "meta_mean_motion_ddot": 0,
        "tle_line1": "1 42987U 17068A   25358.83455398  .00023136  00000+0  44441-3 0  9994",
        "tle_line2": "2 42987  97.4153 136.6296 0001124  96.2754 263.8624 15.47961790456189"
      },
      "geometry": {
        "type": "Point",
        "coordinates": [
          132.01674563870512,
          33.52770245797789
        ]
      }
    },
    {
      "type": "Feature",
      "properties": {
        "norad_id": 42988,
        "name": "SKYSAT-C10",
        "group": "resource",
        "lat": 38.95479769410383,
        "lon": -43.89520128959868,
        "alt_km": 465.5725655675851,
        "timestamp": "2025-12-25T03:55:55.963849+00:00",
        "meta_object_name": "SKYSAT-C10",
        "meta_object_id": "2017-068B",
        "meta_epoch": "2025-12-24T19:29:00.783168",
        "meta_mean_motion": 15.32071049,
        "meta_eccentricity": 0.000431,
        "meta_inclination": 97.4272,
        "meta_ra_of_asc_node": 129.6977,
        "meta_arg_of_pericenter": 75.127,
        "meta_mean_anomaly": 285.0448,
        "meta_ephemeris_type": 0,
        "meta_classification_type": "U",
        "meta_norad_cat_id": 42988,
        "meta_element_set_no": 999,
        "meta_rev_at_epoch": 45564,
        "meta_bstar": 0.00040465,
        "meta_mean_motion_dot": 0.00012461,
        "meta_mean_motion_ddot": 0,
        "tle_line1": "1 42988U 17068B   25358.81181462  .00012461  00000+0  40465-3 0  9992",
        "tle_line2": "2 42988  97.4272 129.6977 0004310  75.1270 285.0448 15.32071049455642"
      },
      "geometry": {
        "type": "Point",
        "coordinates": [
          -43.89520128959868,
          38.95479769410383
        ]
      }
    }
  ]
}